IRIDIUM 63              
1 25286U 98021B   25168.66711375  .00000356  00000+0  11452-3 0  9990
2 25286  86.3976  81.9316 0002046  83.3845 276.7585 14.36547394423910
IRIDIUM 69              
1 25319U 98026A   25168.88660950  .00000429  00000+0  12731-3 0  9990
2 25319  86.3970  95.1282 0003958  52.5871 307.5688 14.40970146423164
IRIDIUM 71              
1 25320U 98026B   25169.03221426  .00000390  00000+0  11486-3 0  9994
2 25320  86.3970  89.7567 0004376  84.2344 275.9355 14.41159674423966
IRIDIUM 73              
1 25344U 98032C   25168.75115288  .00000451  00000+0  10726-3 0  9997
2 25344  86.4413  46.5780 0002311  69.5136 290.6317 14.51717107430642
IRIDIUM 82              
1 25467U 98051A   25168.35399314  .00018589  00000+0  53339-3 0  9992
2 25467  86.3667 109.6566 0081633 296.9644  62.3284 15.32383197423989
